{
  "type": "FeatureCollection",
  "features": [
    {
      "type": "Feature",
      "properties": {
        "norad_id": 33648,
        "name": "FENGYUN 1C DEB",
        "group": "fengyun-1c-debris",
        "lat": -70.24131887778482,
        "lon": 141.74950611754983,
        "alt_km": 853.901020137986,
        "timestamp": "2025-12-14T09:36:23.323588+00:00",
        "meta_object_name": "FENGYUN 1C DEB",
        "meta_object_id": "1999-025DEH",
        "meta_epoch": "2025-12-13T05:12:17.232768",
        "meta_mean_motion": 14.11775748,
        "meta_eccentricity": 0.00689043,
        "meta_inclination": 98.7195,
        "meta_ra_of_asc_node": 345.8916,
        "meta_arg_of_pericenter": 172.8018,
        "meta_mean_anomaly": 187.416,
        "meta_ephemeris_type": 0,
        "meta_classification_type": "U",
        "meta_norad_cat_id": 33648,
        "meta_element_set_no": 999,
        "meta_rev_at_epoch": 64383,
        "meta_bstar": 0.00020305891,
        "meta_mean_motion_dot": 3.36e-06,
        "meta_mean_motion_ddot": 0,
        "tle_line1": "1 33648U 99025DEH 25347.21686612  .00000336  00000+0  20306-3 0  9997",
        "tle_line2": "2 33648  98.7195 345.8916 0068904 172.8018 187.4160 14.11775748643831"
      },
      "geometry": {
        "type": "Point",
        "coordinates": [
          141.74950611754983,
          -70.24131887778482
        ]
      }
    },
    {
      "type": "Feature",
      "properties": {
        "norad_id": 33650,
        "name": "FENGYUN 1C DEB",
        "group": "fengyun-1c-debris",
        "lat": -74.16418184644326,
        "lon": -60.50129407913881,
        "alt_km": 1048.2169210371767,
        "timestamp": "2025-12-14T09:36:23.323598+00:00",
        "meta_object_name": "FENGYUN 1C DEB",
        "meta_object_id": "1999-025DEK",
        "meta_epoch": "2025-12-11T09:30:38.011392",
        "meta_mean_motion": 13.89190358,
        "meta_eccentricity": 0.01499072,
        "meta_inclination": 98.9876,
        "meta_ra_of_asc_node": 150.5139,
        "meta_arg_of_pericenter": 82.7256,
        "meta_mean_anomaly": 279.0915,
        "meta_ephemeris_type": 0,
        "meta_classification_type": "U",
        "meta_norad_cat_id": 33650,
        "meta_element_set_no": 999,
        "meta_rev_at_epoch": 68790,
        "meta_bstar": 0.0011281817,
        "meta_mean_motion_dot": 1.46e-05,
        "meta_mean_motion_ddot": 0,
        "tle_line1": "1 33650U 99025DEK 25345.39627328  .00001460  00000+0  11282-2 0  9997",
        "tle_line2": "2 33650  98.9876 150.5139 0149907  82.7256 279.0915 13.89190358687900"
      },
      "geometry": {
        "type": "Point",
        "coordinates": [
          -60.50129407913881,
          -74.16418184644326
        ]
      }
    },
    {
      "type": "Feature",
      "properties": {
        "norad_id": 33651,
        "name": "FENGYUN 1C DEB",
        "group": "fengyun-1c-debris",
        "lat": -8.91810384820269,
        "lon": 35.318597250245915,
        "alt_km": 782.5053772709434,
        "timestamp": "2025-12-14T09:36:23.323608+00:00",
        "meta_object_name": "FENGYUN 1C DEB",
        "meta_object_id": "1999-025DEL",
        "meta_epoch": "2025-12-09T09:36:40.963968",
        "meta_mean_motion": 14.20352443,
        "meta_eccentricity": 0.01178528,
        "meta_inclination": 98.6567,
        "meta_ra_of_asc_node": 29.0543,
        "meta_arg_of_pericenter": 63.5748,
        "meta_mean_anomaly": 297.7466,
        "meta_ephemeris_type": 0,
        "meta_classification_type": "U",
        "meta_norad_cat_id": 33651,
        "meta_element_set_no": 999,
        "meta_rev_at_epoch": 64224,
        "meta_bstar": 0.00025261989,
        "meta_mean_motion_dot": 5.38e-06,
        "meta_mean_motion_ddot": 0,
        "tle_line1": "1 33651U 99025DEL 25343.40047412  .00000538  00000+0  25262-3 0  9997",
        "tle_line2": "2 33651  98.6567  29.0543 0117852  63.5748 297.7466 14.20352443642248"
      },
      "geometry": {
        "type": "Point",
        "coordinates": [
          35.318597250245915,
          -8.91810384820269
        ]
      }
    },
    {
      "type": "Feature",
      "properties": {
        "norad_id": 33655,
        "name": "FENGYUN 1C DEB",
        "group": "fengyun-1c-debris",
        "lat": 29.24962759606666,
        "lon": -121.16057158433796,
        "alt_km": 602.4146763174967,
        "timestamp": "2025-12-14T09:36:23.323620+00:00",
        "meta_object_name": "FENGYUN 1C DEB",
        "meta_object_id": "1999-025DEQ",
        "meta_epoch": "2025-12-11T10:23:28.870656",
        "meta_mean_motion": 14.9764619,
        "meta_eccentricity": 0.00475767,
        "meta_inclination": 98.8013,
        "meta_ra_of_asc_node": 50.5207,
        "meta_arg_of_pericenter": 2.7991,
        "meta_mean_anomaly": 357.3485,
        "meta_ephemeris_type": 0,
        "meta_classification_type": "U",
        "meta_norad_cat_id": 33655,
        "meta_element_set_no": 999,
        "meta_rev_at_epoch": 96538,
        "meta_bstar": 0.003419074,
        "meta_mean_motion_dot": 0.00041083,
        "meta_mean_motion_ddot": 0,
        "tle_line1": "1 33655U 99025DEQ 25345.43297304  .00041083  00000+0  34191-2 0  9993",
        "tle_line2": "2 33655  98.8013  50.5207 0047576   2.7991 357.3485 14.97646190965382"
      },
      "geometry": {
        "type": "Point",
        "coordinates": [
          -121.16057158433796,
          29.24962759606666
        ]
      }
    },
    {
      "type": "Feature",
      "properties": {
        "norad_id": 33656,
        "name": "FENGYUN 1C DEB",
        "group": "fengyun-1c-debris",
        "lat": -0.3140730996034604,
        "lon": 161.37245224925078,
        "alt_km": 877.3849018803767,
        "timestamp": "2025-12-14T09:36:23.323631+00:00",
        "meta_object_name": "FENGYUN 1C DEB",
        "meta_object_id": "1999-025DER",
        "meta_epoch": "2025-12-08T19:25:37.486560",
        "meta_mean_motion": 14.2271982,
        "meta_eccentricity": 0.00906449,
        "meta_inclination": 98.5783,
        "meta_ra_of_asc_node": 335.9755,
        "meta_arg_of_pericenter": 42.7826,
        "meta_mean_anomaly": 318.0362,
        "meta_ephemeris_type": 0,
        "meta_classification_type": "U",
        "meta_norad_cat_id": 33656,
        "meta_element_set_no": 999,
        "meta_rev_at_epoch": 62653,
        "meta_bstar": 0.00077976866,
        "meta_mean_motion_dot": 1.78e-05,
        "meta_mean_motion_ddot": 0,
        "tle_line1": "1 33656U 99025DER 25342.80946165  .00001780  00000+0  77977-3 0  9998",
        "tle_line2": "2 33656  98.5783 335.9755 0090644  42.7826 318.0362 14.22719820626535"
      },
      "geometry": {
        "type": "Point",
        "coordinates": [
          161.37245224925078,
          -0.3140730996034604
        ]
      }
    },
    {
      "type": "Feature",
      "properties": {
        "norad_id": 33658,
        "name": "FENGYUN 1C DEB",
        "group": "fengyun-1c-debris",
        "lat": -70.2288916564661,
        "lon": -66.39896248258484,
        "alt_km": 976.2832784660077,
        "timestamp": "2025-12-14T09:36:23.323640+00:00",
        "meta_object_name": "FENGYUN 1C DEB",
        "meta_object_id": "1999-025DET",
        "meta_epoch": "2025-12-13T16:31:23.450304",
        "meta_mean_motion": 13.62374547,
        "meta_eccentricity": 0.02832522,
        "meta_inclination": 99.5631,
        "meta_ra_of_asc_node": 140.8704,
        "meta_arg_of_pericenter": 178.8756,
        "meta_mean_anomaly": 181.3083,
        "meta_ephemeris_type": 0,
        "meta_classification_type": "U",
        "meta_norad_cat_id": 33658,
        "meta_element_set_no": 999,
        "meta_rev_at_epoch": 58152,
        "meta_bstar": 0.0040903912,
        "meta_mean_motion_dot": 4.108e-05,
        "meta_mean_motion_ddot": 0,
        "tle_line1": "1 33658U 99025DET 25347.68846586  .00004108  00000+0  40904-2 0  9993",
        "tle_line2": "2 33658  99.5631 140.8704 0283252 178.8756 181.3083 13.62374547581525"
      },
      "geometry": {
        "type": "Point",
        "coordinates": [
          -66.39896248258484,
          -70.2288916564661
        ]
      }
    },
    {
      "type": "Feature",
      "properties": {
        "norad_id": 33660,
        "name": "FENGYUN 1C DEB",
        "group": "fengyun-1c-debris",
        "lat": 17.31379971856485,
        "lon": -103.24357936372328,
        "alt_km": 980.128403946047,
        "timestamp": "2025-12-14T09:36:23.323653+00:00",
        "meta_object_name": "FENGYUN 1C DEB",
        "meta_object_id": "1999-025DEV",
        "meta_epoch": "2025-12-13T13:26:06.078912",
        "meta_mean_motion": 13.91772107,
        "meta_eccentricity": 0.01098001,
        "meta_inclination": 98.6565,
        "meta_ra_of_asc_node": 258.6937,
        "meta_arg_of_pericenter": 243.8605,
        "meta_mean_anomaly": 244.0896,
        "meta_ephemeris_type": 0,
        "meta_classification_type": "U",
        "meta_norad_cat_id": 33660,
        "meta_element_set_no": 999,
        "meta_rev_at_epoch": 91075,
        "meta_bstar": 0.00072738739,
        "meta_mean_motion_dot": 9.31e-06,
        "meta_mean_motion_ddot": 0,
        "tle_line1": "1 33660U 99025DEV 25347.55979258  .00000931  00000+0  72739-3 0  9997",
        "tle_line2": "2 33660  98.6565 258.6937 0109800 243.8605 244.0896 13.91772107910758"
      },
      "geometry": {
        "type": "Point",
        "coordinates": [
          -103.24357936372328,
          17.31379971856485
        ]
      }
    }
  ]
}